NORAD_CAT_ID,OBJECT_NAME,OBJECT_TYPE,EPOCH,MEAN_MOTION,ECCENTRICITY,INCLINATION,RA_OF_ASC_NODE,ARG_OF_PERICENTER,MEAN_ANOMALY,BSTAR,MEAN_MOTION_DOT,MEAN_MOTION_DDOT,TLE_LINE0,TLE_LINE1,TLE_LINE2,SEMIMAJOR_AXIS,PERIOD,APOGEE,PERIGEE,DECAYED
53406.0,STARLINK-4533,PAYLOAD,2024-08-12 06:26:25,15.0886905,0.0001751,53.2152,172.8012,83.06,277.0592,0.00040769,6.211e-05,0.0,0 STARLINK-4533,1 53406U 22097U   24225.26834807  .00006211  00000-0  40769-3 0  9990,2 53406  53.2152 172.8012 0001751  83.0600 277.0592 15.08869050111445,6917.792,95.436,540.868,538.445,0.0
53406.0,STARLINK-4533,PAYLOAD,2024-08-12 20:44:53,15.08863143,0.0002184,53.2155,170.1214,95.4623,264.6618,0.00011841,1.598e-05,0.0,0 STARLINK-4533,1 53406U 22097U   24225.86450761  .00001598  00000-0  11841-3 0  9991,2 53406  53.2155 170.1214 0002184  95.4623 264.6618 15.08863143111534,6917.81,95.436,541.186,538.164,0.0
53406.0,STARLINK-4533,PAYLOAD,2024-08-13 03:06:25,15.08859751,0.0001168,53.2151,168.933,108.0648,252.0471,0.00019946,2.89e-05,0.0,0 STARLINK-4533,1 53406U 22097U   24226.12946581  .00002890  00000-0  19946-3 0  9991,2 53406  53.2151 168.9330 0001168 108.0648 252.0471 15.08859751112060,6917.82,95.436,540.493,538.877,0.0
53406.0,STARLINK-4533,PAYLOAD,2024-08-13 20:35:43,15.08797417,0.0001236,53.2152,165.6598,94.5657,265.5476,-0.00068585,-0.00011174,0.0,0 STARLINK-4533,1 53406U 22097U   24226.85814365 -.00011174  00000-0 -68585-3 0  9995,2 53406  53.2152 165.6598 0001236  94.5657 265.5476 15.08797417111687,6918.011,95.44,540.731,539.02,0.0
53406.0,STARLINK-4533,PAYLOAD,2024-08-14 02:57:16,15.08804877,0.000134,53.2157,164.4754,97.9898,262.1246,-3.006e-05,-7.66e-06,0.0,0 STARLINK-4533,1 53406U 22097U   24227.12310685 -.00000766  00000-0 -30060-4 0  9995,2 53406  53.2157 164.4754 0001340  97.9898 262.1246 15.08804877111725,6917.988,95.44,540.78,538.926,0.0
53406.0,STARLINK-4533,PAYLOAD,2024-08-14 12:29:35,15.08821288,0.0001243,53.2156,162.6892,94.7079,265.4055,0.0012924,0.0002033,0.0,0 STARLINK-4533,1 53406U 22097U   24227.52055482  .00020330  00000-0  12924-2 0  9994,2 53406  53.2156 162.6892 0001243  94.7079 265.4055 15.08821288112275,6917.938,95.439,540.662,538.943,0.0
53406.0,STARLINK-4533,PAYLOAD,2024-08-15 02:48:03,15.08878557,0.0001051,53.2139,160.0123,99.4553,260.6558,0.0019197,0.00030429,0.0,0 STARLINK-4533,1 53406U 22097U   24228.11670469  .00030429  00000-0  19197-2 0  9997,2 53406  53.2139 160.0123 0001051  99.4553 260.6558 15.08878557111872,6917.763,95.435,540.355,538.9,0.0
53406.0,STARLINK-4533,PAYLOAD,2024-08-15 12:20:21,15.08883284,0.0001256,53.2135,158.2259,75.2287,284.8844,0.0013748,0.00021686,0.0,0 STARLINK-4533,1 53406U 22097U   24228.51413761  .00021686  00000-0  13748-2 0  9992,2 53406  53.2135 158.2259 0001256  75.2287 284.8844 15.08883284112421,6917.748,95.435,540.482,538.744,0.0
53406.0,STARLINK-4533,PAYLOAD,2024-08-16 02:38:49,15.08867318,8.96e-05,53.2138,155.5514,90.0005,270.1089,0.0018187,0.00028797,0.0,0 STARLINK-4533,1 53406U 22097U   24229.11029184  .00028797  00000-0  18187-2 0  9993,2 53406  53.2138 155.5514 0000896  90.0005 270.1089 15.08867318112025,6917.797,95.436,540.282,539.042,0.0
53406.0,STARLINK-4533,PAYLOAD,2024-08-17 04:04:59,15.08858945,0.0001239,53.2139,150.7947,100.4853,259.6279,0.0010198,0.00015988,0.0,0 STARLINK-4533,1 53406U 22097U   24230.17012945  .00015988  00000-0  10198-2 0  9990,2 53406  53.2139 150.7947 0001239 100.4853 259.6279 15.08858945112188,6917.822,95.436,540.545,538.83,0.0
53406.0,STARLINK-4533,PAYLOAD,2024-08-17 18:23:27,15.0884379,0.0001545,53.2151,148.1187,89.507,270.61,0.00096385,0.00015087,0.0,0 STARLINK-4533,1 53406U 22097U   24230.76629353  .00015087  00000-0  96385-3 0  9995,2 53406  53.2151 148.1187 0001545  89.5070 270.6100 15.08843790112275,6917.869,95.437,540.803,538.665,0.0
53406.0,STARLINK-4533,PAYLOAD,2024-08-18 00:45:00,15.08842006,0.0001788,53.2149,146.9266,127.4917,232.6238,0.0010421,0.00016337,0.0,0 STARLINK-4533,1 53406U 22097U   24231.03125286  .00016337  00000-0  10421-2 0  9997,2 53406  53.2149 146.9266 0001788 127.4917 232.6238 15.08842006112805,6917.874,95.437,540.976,538.502,0.0
53406.0,STARLINK-4533,PAYLOAD,2024-08-18 18:14:14,15.08854955,0.0001522,53.215,143.6591,84.9437,275.1729,0.00074782,0.00011638,0.0,0 STARLINK-4533,1 53406U 22097U   24231.75989251  .00011638  00000-0  74782-3 0  9996,2 53406  53.2150 143.6591 0001522  84.9437 275.1729 15.08854955112423,6917.835,95.437,540.753,538.647,0.0
53406.0,STARLINK-4533,PAYLOAD,2024-08-19 11:43:28,15.08847357,0.0001158,53.2161,140.3853,120.0123,240.0984,-0.00018531,-3.236e-05,0.0,0 STARLINK-4533,1 53406U 22097U   24232.48852492 -.00003236  00000-0 -18531-3 0  9990,2 53406  53.2161 140.3853 0001158 120.0123 240.0984 15.08847357112533,6917.858,95.437,540.524,538.922,0.0
53406.0,STARLINK-4533,PAYLOAD,2024-08-19 21:15:47,15.08835864,0.0001831,53.2154,138.6022,101.3607,258.7591,-6.494e-05,-1.321e-05,0.0,0 STARLINK-4533,1 53406U 22097U   24232.88597166 -.00001321  00000-0 -64940-4 0  9997,2 53406  53.2154 138.6022 0001831 101.3607 258.7591 15.08835864112596,6917.893,95.438,541.025,538.491,0.0
53406.0,STARLINK-4533,PAYLOAD,2024-08-20 03:37:20,15.08837038,0.0001804,53.2161,137.4127,104.0073,256.112,4.9662e-05,5.02e-06,0.0,0 STARLINK-4533,1 53406U 22097U   24233.15093310  .00000502  00000-0  49662-4 0  9992,2 53406  53.2161 137.4127 0001804 104.0073 256.1120 15.08837038113129,6917.889,95.438,541.002,538.506,0.0
53406.0,STARLINK-4533,PAYLOAD,2024-08-21 03:28:07,15.08852396,0.0001725,53.2169,132.9514,95.6653,264.4536,0.00074734,0.0001163,0.0,0 STARLINK-4533,1 53406U 22097U   24234.14453408  .00011630  00000-0  74734-3 0  9991,2 53406  53.2169 132.9514 0001725  95.6653 264.4536 15.08852396112786,6917.842,95.437,540.901,538.514,0.0
53406.0,STARLINK-4533,PAYLOAD,2024-08-21 22:32:45,15.08838309,0.000176,53.216,129.3766,113.0667,247.0511,0.00020738,3.014e-05,0.0,0 STARLINK-4533,1 53406U 22097U   24234.93941763  .00003014  00000-0  20738-3 0  9996,2 53406  53.2160 129.3766 0001760 113.0667 247.0511 15.08838309112907,6917.886,95.438,540.968,538.533,0.0
